[{"OBJECT_NAME":"ION SCV-012","OBJECT_ID":"2024-149DK","EPOCH":"2026-03-09T18:21:23.444352","MEAN_MOTION":14.9470579,"ECCENTRICITY":0.00046179,"INCLINATION":97.6849,"RA_OF_ASC_NODE":144.865,"ARG_OF_PERICENTER":66.6565,"MEAN_ANOMALY":293.5141,"EPHEMERIS_TYPE":0,"CLASSIFICATION_TYPE":"U","NORAD_CAT_ID":60573,"ELEMENT_SET_NO":999,"REV_AT_EPOCH":8506,"BSTAR":0.00018031368,"MEAN_MOTION_DOT":1.901e-5,"MEAN_MOTION_DDOT":0},{"OBJECT_NAME":"COSMOS 2251 DEB","OBJECT_ID":"1993-036ACX","EPOCH":"2026-03-09T22:13:44.092128","MEAN_MOTION":14.95569259,"ECCENTRICITY":0.00041283,"INCLINATION":74.0136,"RA_OF_ASC_NODE":241.2971,"ARG_OF_PERICENTER":299.7284,"MEAN_ANOMALY":181.3861,"EPHEMERIS_TYPE":0,"CLASSIFICATION_TYPE":"U","NORAD_CAT_ID":34884,"ELEMENT_SET_NO":999,"REV_AT_EPOCH":89106,"BSTAR":0.0029753161,"MEAN_MOTION_DOT":0.00033143,"MEAN_MOTION_DDOT":0}]
